{
  "type": "FeatureCollection",
  "features": [
    {
      "type": "Feature",
      "properties": {
        "norad_id": 34750,
        "name": "COSMOS 2251 DEB",
        "group": "cosmos-2251-debris",
        "lat": -74.051040162285,
        "lon": 128.8311687421091,
        "alt_km": 701.5764348940584,
        "timestamp": "2025-12-06T03:35:02.281132+00:00",
        "meta_object_name": "COSMOS 2251 DEB",
        "meta_object_id": "1993-036ZU",
        "meta_epoch": "2025-12-04T19:40:34.190688",
        "meta_mean_motion": 14.61202682,
        "meta_eccentricity": 0.00392385,
        "meta_inclination": 74.1084,
        "meta_ra_of_asc_node": 216.8272,
        "meta_arg_of_pericenter": 172.6385,
        "meta_mean_anomaly": 307.419,
        "meta_ephemeris_type": 0,
        "meta_classification_type": "U",
        "meta_norad_cat_id": 34750,
        "meta_element_set_no": 999,
        "meta_rev_at_epoch": 88115,
        "meta_bstar": 0.0024612458,
        "meta_mean_motion_dot": 0.00012252,
        "meta_mean_motion_ddot": 0,
        "tle_line1": "1 34750U 93036ZU  25338.81984017  .00012252  00000+0  24612-2 0  9997",
        "tle_line2": "2 34750  74.1084 216.8272 0039238 172.6385 307.4190 14.61202682881159"
      },
      "geometry": {
        "type": "Point",
        "coordinates": [
          128.8311687421091,
          -74.051040162285
        ]
      }
    },
    {
      "type": "Feature",
      "properties": {
        "norad_id": 34752,
        "name": "COSMOS 2251 DEB",
        "group": "cosmos-2251-debris",
        "lat": -36.89826476264953,
        "lon": -153.5524107723652,
        "alt_km": 564.2612687072533,
        "timestamp": "2025-12-06T03:35:02.281142+00:00",
        "meta_object_name": "COSMOS 2251 DEB",
        "meta_object_id": "1993-036ZW",
        "meta_epoch": "2025-12-03T20:10:49.058112",
        "meta_mean_motion": 14.99598004,
        "meta_eccentricity": 0.0048352,
        "meta_inclination": 74.0141,
        "meta_ra_of_asc_node": 18.7121,
        "meta_arg_of_pericenter": 150.1715,
        "meta_mean_anomaly": 210.2244,
        "meta_ephemeris_type": 0,
        "meta_classification_type": "U",
        "meta_norad_cat_id": 34752,
        "meta_element_set_no": 999,
        "meta_rev_at_epoch": 89716,
        "meta_bstar": 0.0018247474,
        "meta_mean_motion_dot": 0.00023054,
        "meta_mean_motion_ddot": 0,
        "tle_line1": "1 34752U 93036ZW  25337.84084558  .00023054  00000+0  18247-2 0  9991",
        "tle_line2": "2 34752  74.0141  18.7121 0048352 150.1715 210.2244 14.99598004897167"
      },
      "geometry": {
        "type": "Point",
        "coordinates": [
          -153.5524107723652,
          -36.89826476264953
        ]
      }
    },
    {
      "type": "Feature",
      "properties": {
        "norad_id": 34754,
        "name": "COSMOS 2251 DEB",
        "group": "cosmos-2251-debris",
        "lat": 20.504588422154036,
        "lon": 53.64538404557167,
        "alt_km": 776.3417294900491,
        "timestamp": "2025-12-06T03:35:02.281153+00:00",
        "meta_object_name": "COSMOS 2251 DEB",
        "meta_object_id": "1993-036ZY",
        "meta_epoch": "2025-12-05T04:12:41.491008",
        "meta_mean_motion": 14.40464577,
        "meta_eccentricity": 0.00292428,
        "meta_inclination": 74.0306,
        "meta_ra_of_asc_node": 241.5936,
        "meta_arg_of_pericenter": 359.1888,
        "meta_mean_anomaly": 151.1899,
        "meta_ephemeris_type": 0,
        "meta_classification_type": "U",
        "meta_norad_cat_id": 34754,
        "meta_element_set_no": 999,
        "meta_rev_at_epoch": 88024,
        "meta_bstar": 0.00042942896,
        "meta_mean_motion_dot": 1.346e-05,
        "meta_mean_motion_ddot": 0,
        "tle_line1": "1 34754U 93036ZY  25339.17548022  .00001346  00000+0  42943-3 0  9993",
        "tle_line2": "2 34754  74.0306 241.5936 0029242 359.1888 151.1899 14.40464577880244"
      },
      "geometry": {
        "type": "Point",
        "coordinates": [
          53.64538404557167,
          20.504588422154036
        ]
      }
    },
    {
      "type": "Feature",
      "properties": {
        "norad_id": 34755,
        "name": "COSMOS 2251 DEB",
        "group": "cosmos-2251-debris",
        "lat": -50.74253826942505,
        "lon": 141.2832258592003,
        "alt_km": 1053.4893520497426,
        "timestamp": "2025-12-06T03:35:02.281163+00:00",
        "meta_object_name": "COSMOS 2251 DEB",
        "meta_object_id": "1993-036ZZ",
        "meta_epoch": "2025-11-28T15:26:25.154880",
        "meta_mean_motion": 13.50483978,
        "meta_eccentricity": 0.04082229,
        "meta_inclination": 73.9254,
        "meta_ra_of_asc_node": 312.682,
        "meta_arg_of_pericenter": 334.9897,
        "meta_mean_anomaly": 144.2013,
        "meta_ephemeris_type": 0,
        "meta_classification_type": "U",
        "meta_norad_cat_id": 34755,
        "meta_element_set_no": 999,
        "meta_rev_at_epoch": 82333,
        "meta_bstar": 0.001766679,
        "meta_mean_motion_dot": 1.881e-05,
        "meta_mean_motion_ddot": 0,
        "tle_line1": "1 34755U 93036ZZ  25332.64334670  .00001881  00000+0  17667-2 0  9999",
        "tle_line2": "2 34755  73.9254 312.6820 0408222 334.9897 144.2013 13.50483978823331"
      },
      "geometry": {
        "type": "Point",
        "coordinates": [
          141.2832258592003,
          -50.74253826942505
        ]
      }
    },
    {
      "type": "Feature",
      "properties": {
        "norad_id": 34756,
        "name": "COSMOS 2251 DEB",
        "group": "cosmos-2251-debris",
        "lat": 62.70413713467865,
        "lon": -98.56540156436148,
        "alt_km": 1123.194925277583,
        "timestamp": "2025-12-06T03:35:02.281174+00:00",
        "meta_object_name": "COSMOS 2251 DEB",
        "meta_object_id": "1993-036AAA",
        "meta_epoch": "2025-12-02T16:31:05.981088",
        "meta_mean_motion": 13.67210106,
        "meta_eccentricity": 0.0344553,
        "meta_inclination": 74.0021,
        "meta_ra_of_asc_node": 120.8981,
        "meta_arg_of_pericenter": 358.9057,
        "meta_mean_anomaly": 1.1264,
        "meta_ephemeris_type": 0,
        "meta_classification_type": "U",
        "meta_norad_cat_id": 34756,
        "meta_element_set_no": 999,
        "meta_rev_at_epoch": 83284,
        "meta_bstar": 0.0010550911,
        "meta_mean_motion_dot": 1.312e-05,
        "meta_mean_motion_ddot": 0,
        "tle_line1": "1 34756U 93036AAA 25336.68826367  .00001312  00000+0  10551-2 0  9991",
        "tle_line2": "2 34756  74.0021 120.8981 0344553 358.9057   1.1264 13.67210106832847"
      },
      "geometry": {
        "type": "Point",
        "coordinates": [
          -98.56540156436148,
          62.70413713467865
        ]
      }
    },
    {
      "type": "Feature",
      "properties": {
        "norad_id": 34758,
        "name": "COSMOS 2251 DEB",
        "group": "cosmos-2251-debris",
        "lat": 70.96212228733394,
        "lon": 5.755023616428268,
        "alt_km": 753.6801817996984,
        "timestamp": "2025-12-06T03:35:02.281184+00:00",
        "meta_object_name": "COSMOS 2251 DEB",
        "meta_object_id": "1993-036AAC",
        "meta_epoch": "2025-12-04T15:51:30.235104",
        "meta_mean_motion": 13.58035438,
        "meta_eccentricity": 0.03807228,
        "meta_inclination": 74.1071,
        "meta_ra_of_asc_node": 312.4982,
        "meta_arg_of_pericenter": 78.1629,
        "meta_mean_anomaly": 286.1911,
        "meta_ephemeris_type": 0,
        "meta_classification_type": "U",
        "meta_norad_cat_id": 34758,
        "meta_element_set_no": 999,
        "meta_rev_at_epoch": 82800,
        "meta_bstar": 0.0016070866,
        "meta_mean_motion_dot": 1.847e-05,
        "meta_mean_motion_ddot": 0,
        "tle_line1": "1 34758U 93036AAC 25338.66076661  .00001847  00000+0  16071-2 0  9993",
        "tle_line2": "2 34758  74.1071 312.4982 0380722  78.1629 286.1911 13.58035438828009"
      },
      "geometry": {
        "type": "Point",
        "coordinates": [
          5.755023616428268,
          70.96212228733394
        ]
      }
    },
    {
      "type": "Feature",
      "properties": {
        "norad_id": 34760,
        "name": "COSMOS 2251 DEB",
        "group": "cosmos-2251-debris",
        "lat": -47.06060165091417,
        "lon": -63.75954630605869,
        "alt_km": 795.3687915813816,
        "timestamp": "2025-12-06T03:35:02.281195+00:00",
        "meta_object_name": "COSMOS 2251 DEB",
        "meta_object_id": "1993-036AAE",
        "meta_epoch": "2025-12-02T15:48:08.179200",
        "meta_mean_motion": 14.19524364,
        "meta_eccentricity": 0.00962533,
        "meta_inclination": 74.0627,
        "meta_ra_of_asc_node": 320.3503,
        "meta_arg_of_pericenter": 14.8263,
        "meta_mean_anomaly": 104.0636,
        "meta_ephemeris_type": 0,
        "meta_classification_type": "U",
        "meta_norad_cat_id": 34760,
        "meta_element_set_no": 999,
        "meta_rev_at_epoch": 86545,
        "meta_bstar": 0.00087310198,
        "meta_mean_motion_dot": 1.903e-05,
        "meta_mean_motion_ddot": 0,
        "tle_line1": "1 34760U 93036AAE 25336.65842800  .00001903  00000+0  87310-3 0  9997",
        "tle_line2": "2 34760  74.0627 320.3503 0096253  14.8263 104.0636 14.19524364865450"
      },
      "geometry": {
        "type": "Point",
        "coordinates": [
          -63.75954630605869,
          -47.06060165091417
        ]
      }
    }
  ]
}